SL-4 R/B                
1 39679U 14021B   25363.26203602  .00015156  00000+0  35613-3 0  9990
2 39679  51.6086 320.2752 0100404 205.8840 153.7101 15.37072025645431
ALOS-2                  
1 39766U 14029A   25363.24546207  .00003104  00000+0  42220-3 0  9996
2 39766  97.9214  97.8559 0001432  99.8104 260.3269 14.79480853626459
YAOGAN-29               
1 41038U 15069A   25363.28397392  .00000655  00000+0  87485-4 0  9990
2 41038  98.0212  26.5078 0001159 157.6531 202.4733 14.82900445545442
ASTRO-H (HITOMI)        
1 41337U 16012A   25362.95789015  .00005469  00000+0  32727-3 0  9997
2 41337  30.9996  92.8074 0009652 341.3453  18.6831 15.09466005541532
HXMT (HUIYAN)           
1 42758U 17034A   25363.32470689  .00009915  00000+0  50560-3 0  9991
2 42758  43.0149  47.5821 0031699 151.9138 208.3428 15.16447432471851
CZ-2C R/B               
1 43521U 18054D   25363.20562835  .00159757  00000+0  89093-3 0  9998
2 43521  35.1331  68.9451 0013750 307.2892  52.6588 15.77824091417654
SAOCOM 1A               
1 43641U 18076A   25363.27952278  .00000080  00000+0  16612-4 0  9998
2 43641  97.8850 187.4603 0001366  84.0606 276.0763 14.82150971390939
H-2A R/B                
1 43682U 18084L   25363.09117018  .00028814  00000+0  76244-3 0  9998
2 43682  98.8767 200.5666 0026278 269.1260  90.6970 15.38010517394914
SAOCOM 1B               
1 46265U 20059A   25363.24325969  .00000152  00000+0  25612-4 0  9995
2 46265  97.8846 186.5243 0001445  84.1651 275.9727 14.82154875288311
CSS (TIANHE)            
1 48274U 21035A   25363.17274057  .00025856  00000+0  31523-3 0  9990
2 48274  41.4674 276.8939 0009230 173.1352 186.9615 15.59842432266590
COSMOS 2550             
1 48865U 21056A   25362.04982924 -.00000149  00000+0  12962-5 0  9990
2 48865  67.1448 257.6258 0008372 269.7459  90.2736 15.33830504252479
CZ-2C R/B               
1 52794U 22058K   25363.25796272  .00042801  00000+0  73920-3 0  9991
2 52794  50.1916 319.2590 0044229 266.4023  93.1886 15.49412491199198
