CCSDS_OMM_VERS = 2.0
CREATION_DATE  = 
ORIGINATOR     = 

OBJECT_NAME    = SL-4 R/B
OBJECT_ID      = 2014-021B
CENTER_NAME    = EARTH
REF_FRAME      = TEME
TIME_SYSTEM    = UTC
MEAN_ELEMENT_THEORY = SGP/SGP4

EPOCH          = 2025-12-29T06:17:19.912128
MEAN_MOTION    = 15.37072025
ECCENTRICITY   = .01004041
INCLINATION    = 51.6086
RA_OF_ASC_NODE = 320.2752
ARG_OF_PERICENTER = 205.8840
MEAN_ANOMALY   = 153.7101

EPHEMERIS_TYPE = 0
CLASSIFICATION_TYPE = U
NORAD_CAT_ID   = 39679
ELEMENT_SET_NO = 999
REV_AT_EPOCH   = 64543
BSTAR          = .35613226E-3
MEAN_MOTION_DOT = .15156E-3
MEAN_MOTION_DDOT = 0

CCSDS_OMM_VERS = 2.0
CREATION_DATE  = 
ORIGINATOR     = 

OBJECT_NAME    = ALOS-2
OBJECT_ID      = 2014-029A
CENTER_NAME    = EARTH
REF_FRAME      = TEME
TIME_SYSTEM    = UTC
MEAN_ELEMENT_THEORY = SGP/SGP4

EPOCH          = 2025-12-29T05:53:27.922848
MEAN_MOTION    = 14.79480853
ECCENTRICITY   = .00014321
INCLINATION    = 97.9214
RA_OF_ASC_NODE = 97.8559
ARG_OF_PERICENTER = 99.8104
MEAN_ANOMALY   = 260.3269

EPHEMERIS_TYPE = 0
CLASSIFICATION_TYPE = U
NORAD_CAT_ID   = 39766
ELEMENT_SET_NO = 999
REV_AT_EPOCH   = 62645
BSTAR          = .42220191E-3
MEAN_MOTION_DOT = .3104E-4
MEAN_MOTION_DDOT = 0

CCSDS_OMM_VERS = 2.0
CREATION_DATE  = 
ORIGINATOR     = 

OBJECT_NAME    = YAOGAN-29
OBJECT_ID      = 2015-069A
CENTER_NAME    = EARTH
REF_FRAME      = TEME
TIME_SYSTEM    = UTC
MEAN_ELEMENT_THEORY = SGP/SGP4

EPOCH          = 2025-12-29T06:48:55.346688
MEAN_MOTION    = 14.82900445
ECCENTRICITY   = .00011592
INCLINATION    = 98.0212
RA_OF_ASC_NODE = 26.5078
ARG_OF_PERICENTER = 157.6531
MEAN_ANOMALY   = 202.4733

EPHEMERIS_TYPE = 0
CLASSIFICATION_TYPE = U
NORAD_CAT_ID   = 41038
ELEMENT_SET_NO = 999
REV_AT_EPOCH   = 54544
BSTAR          = .87484749E-4
MEAN_MOTION_DOT = .655E-5
MEAN_MOTION_DDOT = 0

CCSDS_OMM_VERS = 2.0
CREATION_DATE  = 
ORIGINATOR     = 

OBJECT_NAME    = ASTRO-H (HITOMI)
OBJECT_ID      = 2016-012A
CENTER_NAME    = EARTH
REF_FRAME      = TEME
TIME_SYSTEM    = UTC
MEAN_ELEMENT_THEORY = SGP/SGP4

EPOCH          = 2025-12-28T22:59:21.708960
MEAN_MOTION    = 15.09466005
ECCENTRICITY   = .0009652
INCLINATION    = 30.9996
RA_OF_ASC_NODE = 92.8074
ARG_OF_PERICENTER = 341.3453
MEAN_ANOMALY   = 18.6831

EPHEMERIS_TYPE = 0
CLASSIFICATION_TYPE = U
NORAD_CAT_ID   = 41337
ELEMENT_SET_NO = 999
REV_AT_EPOCH   = 54153
BSTAR          = .32727471E-3
MEAN_MOTION_DOT = .5469E-4
MEAN_MOTION_DDOT = 0

CCSDS_OMM_VERS = 2.0
CREATION_DATE  = 
ORIGINATOR     = 

OBJECT_NAME    = HXMT (HUIYAN)
OBJECT_ID      = 2017-034A
CENTER_NAME    = EARTH
REF_FRAME      = TEME
TIME_SYSTEM    = UTC
MEAN_ELEMENT_THEORY = SGP/SGP4

EPOCH          = 2025-12-29T07:47:34.675296
MEAN_MOTION    = 15.16447432
ECCENTRICITY   = .0031699
INCLINATION    = 43.0149
RA_OF_ASC_NODE = 47.5821
ARG_OF_PERICENTER = 151.9138
MEAN_ANOMALY   = 208.3428

EPHEMERIS_TYPE = 0
CLASSIFICATION_TYPE = U
NORAD_CAT_ID   = 42758
ELEMENT_SET_NO = 999
REV_AT_EPOCH   = 47185
BSTAR          = .50560237E-3
MEAN_MOTION_DOT = .9915E-4
MEAN_MOTION_DDOT = 0

CCSDS_OMM_VERS = 2.0
CREATION_DATE  = 
ORIGINATOR     = 

OBJECT_NAME    = CZ-2C R/B
OBJECT_ID      = 2018-054D
CENTER_NAME    = EARTH
REF_FRAME      = TEME
TIME_SYSTEM    = UTC
MEAN_ELEMENT_THEORY = SGP/SGP4

EPOCH          = 2025-12-29T04:56:06.289440
MEAN_MOTION    = 15.77824091
ECCENTRICITY   = .00137509
INCLINATION    = 35.1331
RA_OF_ASC_NODE = 68.9451
ARG_OF_PERICENTER = 307.2892
MEAN_ANOMALY   = 52.6588

EPHEMERIS_TYPE = 0
CLASSIFICATION_TYPE = U
NORAD_CAT_ID   = 43521
ELEMENT_SET_NO = 999
REV_AT_EPOCH   = 41765
BSTAR          = .89092851E-3
MEAN_MOTION_DOT = .159757E-2
MEAN_MOTION_DDOT = 0

CCSDS_OMM_VERS = 2.0
CREATION_DATE  = 
ORIGINATOR     = 

OBJECT_NAME    = SAOCOM 1A
OBJECT_ID      = 2018-076A
CENTER_NAME    = EARTH
REF_FRAME      = TEME
TIME_SYSTEM    = UTC
MEAN_ELEMENT_THEORY = SGP/SGP4

EPOCH          = 2025-12-29T06:42:30.768192
MEAN_MOTION    = 14.82150971
ECCENTRICITY   = .00013664
INCLINATION    = 97.8850
RA_OF_ASC_NODE = 187.4603
ARG_OF_PERICENTER = 84.0606
MEAN_ANOMALY   = 276.0763

EPHEMERIS_TYPE = 0
CLASSIFICATION_TYPE = U
NORAD_CAT_ID   = 43641
ELEMENT_SET_NO = 999
REV_AT_EPOCH   = 39093
BSTAR          = .166119E-4
MEAN_MOTION_DOT = .8E-6
MEAN_MOTION_DDOT = 0

CCSDS_OMM_VERS = 2.0
CREATION_DATE  = 
ORIGINATOR     = 

OBJECT_NAME    = H-2A R/B
OBJECT_ID      = 2018-084L
CENTER_NAME    = EARTH
REF_FRAME      = TEME
TIME_SYSTEM    = UTC
MEAN_ELEMENT_THEORY = SGP/SGP4

EPOCH          = 2025-12-29T02:11:17.103552
MEAN_MOTION    = 15.38010517
ECCENTRICITY   = .00262784
INCLINATION    = 98.8767
RA_OF_ASC_NODE = 200.5666
ARG_OF_PERICENTER = 269.1260
MEAN_ANOMALY   = 90.6970

EPHEMERIS_TYPE = 0
CLASSIFICATION_TYPE = U
NORAD_CAT_ID   = 43682
ELEMENT_SET_NO = 999
REV_AT_EPOCH   = 39491
BSTAR          = .76243996E-3
MEAN_MOTION_DOT = .28814E-3
MEAN_MOTION_DDOT = 0

CCSDS_OMM_VERS = 2.0
CREATION_DATE  = 
ORIGINATOR     = 

OBJECT_NAME    = SAOCOM 1B
OBJECT_ID      = 2020-059A
CENTER_NAME    = EARTH
REF_FRAME      = TEME
TIME_SYSTEM    = UTC
MEAN_ELEMENT_THEORY = SGP/SGP4

EPOCH          = 2025-12-29T05:50:17.637216
MEAN_MOTION    = 14.82154875
ECCENTRICITY   = .00014457
INCLINATION    = 97.8846
RA_OF_ASC_NODE = 186.5243
ARG_OF_PERICENTER = 84.1651
MEAN_ANOMALY   = 275.9727

EPHEMERIS_TYPE = 0
CLASSIFICATION_TYPE = U
NORAD_CAT_ID   = 46265
ELEMENT_SET_NO = 999
REV_AT_EPOCH   = 28831
BSTAR          = .25612186E-4
MEAN_MOTION_DOT = .152E-5
MEAN_MOTION_DDOT = 0

CCSDS_OMM_VERS = 2.0
CREATION_DATE  = 
ORIGINATOR     = 

OBJECT_NAME    = CSS (TIANHE)
OBJECT_ID      = 2021-035A
CENTER_NAME    = EARTH
REF_FRAME      = TEME
TIME_SYSTEM    = UTC
MEAN_ELEMENT_THEORY = SGP/SGP4

EPOCH          = 2025-12-29T04:08:44.785248
MEAN_MOTION    = 15.59842432
ECCENTRICITY   = .00092303
INCLINATION    = 41.4674
RA_OF_ASC_NODE = 276.8939
ARG_OF_PERICENTER = 173.1352
MEAN_ANOMALY   = 186.9615

EPHEMERIS_TYPE = 0
CLASSIFICATION_TYPE = U
NORAD_CAT_ID   = 48274
ELEMENT_SET_NO = 999
REV_AT_EPOCH   = 26659
BSTAR          = .31522987E-3
MEAN_MOTION_DOT = .25856E-3
MEAN_MOTION_DDOT = 0

CCSDS_OMM_VERS = 2.0
CREATION_DATE  = 
ORIGINATOR     = 

OBJECT_NAME    = COSMOS 2550
OBJECT_ID      = 2021-056A
CENTER_NAME    = EARTH
REF_FRAME      = TEME
TIME_SYSTEM    = UTC
MEAN_ELEMENT_THEORY = SGP/SGP4

EPOCH          = 2025-12-28T01:11:45.246336
MEAN_MOTION    = 15.33830504
ECCENTRICITY   = .00083728
INCLINATION    = 67.1448
RA_OF_ASC_NODE = 257.6258
ARG_OF_PERICENTER = 269.7459
MEAN_ANOMALY   = 90.2736

EPHEMERIS_TYPE = 0
CLASSIFICATION_TYPE = U
NORAD_CAT_ID   = 48865
ELEMENT_SET_NO = 999
REV_AT_EPOCH   = 25247
BSTAR          = .1296151E-5
MEAN_MOTION_DOT = -.149E-5
MEAN_MOTION_DDOT = 0

CCSDS_OMM_VERS = 2.0
CREATION_DATE  = 
ORIGINATOR     = 

OBJECT_NAME    = CZ-2C R/B
OBJECT_ID      = 2022-058K
CENTER_NAME    = EARTH
REF_FRAME      = TEME
TIME_SYSTEM    = UTC
MEAN_ELEMENT_THEORY = SGP/SGP4

EPOCH          = 2025-12-29T06:11:27.979008
MEAN_MOTION    = 15.49412491
ECCENTRICITY   = .00442296
INCLINATION    = 50.1916
RA_OF_ASC_NODE = 319.2590
ARG_OF_PERICENTER = 266.4023
MEAN_ANOMALY   = 93.1886

EPHEMERIS_TYPE = 0
CLASSIFICATION_TYPE = U
NORAD_CAT_ID   = 52794
ELEMENT_SET_NO = 999
REV_AT_EPOCH   = 19919
BSTAR          = .73920248E-3
MEAN_MOTION_DOT = .42801E-3
MEAN_MOTION_DDOT = 0

